[
    {
        "Altitude(m)": 555994.3980401494,
        "Argument of Periapsis(deg)": 0.006622991110713501,
        "Eccentricity": 0.0,
        "Inclination(deg)": 53.0,
        "Latitude(deg)": -9.625441796521487,
        "Longitude(deg)": -138.47105820079997,
        "Mean Anomaly(deg)": 191.90979286757755,
        "RAAN(deg)": 134.99014336852804,
        "Satellite Name": "Starlink Shell 1 605",
        "Satellite Number": 605,
        "Semi-Major Axis(m)": 6931778.249405717,
        "Time(s)": 190
    },
    {
        "Altitude(m)": 556111.5042697584,
        "Argument of Periapsis(deg)": 0.0069715695902247375,
        "Eccentricity": 0.0,
        "Inclination(deg)": 53.0,
        "Latitude(deg)": -10.124701720069716,
        "Longitude(deg)": -138.12453341060794,
        "Mean Anomaly(deg)": 192.53662407113427,
        "RAAN(deg)": 134.98962459845052,
        "Satellite Name": "Starlink Shell 1 605",
        "Satellite Number": 605,
        "Semi-Major Axis(m)": 6931778.249405717,
        "Time(s)": 200
    },
    {
        "Altitude(m)": 556230.9765779298,
        "Argument of Periapsis(deg)": 0.007320148069735974,
        "Eccentricity": 0.0,
        "Inclination(deg)": 53.0,
        "Latitude(deg)": -10.623475171631677,
        "Longitude(deg)": -137.77681924065436,
        "Mean Anomaly(deg)": 193.16345527469102,
        "RAAN(deg)": 134.98910582837308,
        "Satellite Name": "Starlink Shell 1 605",
        "Satellite Number": 605,
        "Semi-Major Axis(m)": 6931778.249405717,
        "Time(s)": 210
    },
    {
        "Altitude(m)": 556352.7802246952,
        "Argument of Periapsis(deg)": 0.007668726549247212,
        "Eccentricity": 0.0,
        "Inclination(deg)": 53.0,
        "Latitude(deg)": -11.121736763547004,
        "Longitude(deg)": -137.4278528578128,
        "Mean Anomaly(deg)": 193.79028647824774,
        "RAAN(deg)": 134.98858705829562,
        "Satellite Name": "Starlink Shell 1 605",
        "Satellite Number": 605,
        "Semi-Major Axis(m)": 6931778.249405717,
        "Time(s)": 220
    },
    {
        "Altitude(m)": 556476.879289027,
        "Argument of Periapsis(deg)": 0.00801730502875845,
        "Eccentricity": 0.0,
        "Inclination(deg)": 53.0,
        "Latitude(deg)": -11.619460847509744,
        "Longitude(deg)": -137.07757089176405,
        "Mean Anomaly(deg)": 194.41711768180443,
        "RAAN(deg)": 134.98806828821813,
        "Satellite Name": "Starlink Shell 1 605",
        "Satellite Number": 605,
        "Semi-Major Axis(m)": 6931778.249405717,
        "Time(s)": 230
    },
    {
        "Altitude(m)": 556603.2366839737,
        "Argument of Periapsis(deg)": 0.008365883508269684,
        "Eccentricity": 0.0,
        "Inclination(deg)": 53.0,
        "Latitude(deg)": -12.116621500262378,
        "Longitude(deg)": -136.72590890425883,
        "Mean Anomaly(deg)": 195.04394888536115,
        "RAAN(deg)": 134.98754951814064,
        "Satellite Name": "Starlink Shell 1 605",
        "Satellite Number": 605,
        "Semi-Major Axis(m)": 6931778.249405717,
        "Time(s)": 240
    },
    {
        "Altitude(m)": 556731.8141724316,
        "Argument of Periapsis(deg)": 0.008714461987780921,
        "Eccentricity": 0.0,
        "Inclination(deg)": 53.0,
        "Latitude(deg)": -12.613192509031597,
        "Longitude(deg)": -136.3728023711865,
        "Mean Anomaly(deg)": 195.6707800889179,
        "RAAN(deg)": 134.98703074806318,
        "Satellite Name": "Starlink Shell 1 605",
        "Satellite Number": 605,
        "Semi-Major Axis(m)": 6931778.249405717,
        "Time(s)": 250
    },
    {
        "Altitude(m)": 556862.5723834498,
        "Argument of Periapsis(deg)": 0.009063040467292158,
        "Eccentricity": 0.0,
        "Inclination(deg)": 53.0,
        "Latitude(deg)": -13.10914735669945,
        "Longitude(deg)": -136.01818615170933,
        "Mean Anomaly(deg)": 196.2976112924746,
        "RAAN(deg)": 134.98651197798569,
        "Satellite Name": "Starlink Shell 1 605",
        "Satellite Number": 605,
        "Semi-Major Axis(m)": 6931778.249405717,
        "Time(s)": 260
    },
    {
        "Altitude(m)": 556995.4708291214,
        "Argument of Periapsis(deg)": 0.009411618946803396,
        "Eccentricity": 0.0,
        "Inclination(deg)": 53.0,
        "Latitude(deg)": -13.604459206694148,
        "Longitude(deg)": -135.6619939573451,
        "Mean Anomaly(deg)": 196.9244424960313,
        "RAAN(deg)": 134.98599320790825,
        "Satellite Name": "Starlink Shell 1 605",
        "Satellite Number": 605,
        "Semi-Major Axis(m)": 6931778.249405717,
        "Time(s)": 270
    },
    {
        "Altitude(m)": 557130.467922009,
        "Argument of Periapsis(deg)": 0.009760197426314633,
        "Eccentricity": 0.0,
        "Inclination(deg)": 53.0,
        "Latitude(deg)": -14.099100887586994,
        "Longitude(deg)": -135.30415933388343,
        "Mean Anomaly(deg)": 197.55127369958802,
        "RAAN(deg)": 134.98547443783076,
        "Satellite Name": "Starlink Shell 1 605",
        "Satellite Number": 605,
        "Semi-Major Axis(m)": 6931778.249405717,
        "Time(s)": 280
    },
    {
        "Altitude(m)": 557267.520993113,
        "Argument of Periapsis(deg)": 0.01010877590582587,
        "Eccentricity": 0.0,
        "Inclination(deg)": 53.0,
        "Latitude(deg)": -14.593044877386122,
        "Longitude(deg)": -134.94461513040125,
        "Mean Anomaly(deg)": 198.1781049031447,
        "RAAN(deg)": 134.9849556677533,
        "Satellite Name": "Starlink Shell 1 605",
        "Satellite Number": 605,
        "Semi-Major Axis(m)": 6931778.249405717,
        "Time(s)": 290
    },
    {
        "Altitude(m)": 557406.5863103693,
        "Argument of Periapsis(deg)": 0.010457354385337106,
        "Eccentricity": 0.0,
        "Inclination(deg)": 53.0,
        "Latitude(deg)": -15.086263287514381,
        "Longitude(deg)": -134.58329296826548,
        "Mean Anomaly(deg)": 198.80493610670143,
        "RAAN(deg)": 134.9844368976758,
        "Satellite Name": "Starlink Shell 1 605",
        "Satellite Number": 605,
        "Semi-Major Axis(m)": 6931778.249405717,
        "Time(s)": 300
    },
    {
        "Altitude(m)": 557547.6190976972,
        "Argument of Periapsis(deg)": 0.010805932864848343,
        "Eccentricity": 0.0,
        "Inclination(deg)": 53.0,
        "Latitude(deg)": -15.578727846454639,
        "Longitude(deg)": -134.22012422301603,
        "Mean Anomaly(deg)": 199.4317673102582,
        "RAAN(deg)": 134.98391812759834,
        "Satellite Name": "Starlink Shell 1 605",
        "Satellite Number": 605,
        "Semi-Major Axis(m)": 6931778.249405717,
        "Time(s)": 310
    },
    {
        "Altitude(m)": 557690.5735545113,
        "Argument of Periapsis(deg)": 0.01115451134435958,
        "Eccentricity": 0.0,
        "Inclination(deg)": 53.0,
        "Latitude(deg)": -16.07040988305621,
        "Longitude(deg)": -133.85503949339997,
        "Mean Anomaly(deg)": 200.05859851381487,
        "RAAN(deg)": 134.98339935752085,
        "Satellite Name": "Starlink Shell 1 605",
        "Satellite Number": 605,
        "Semi-Major Axis(m)": 6931778.249405717,
        "Time(s)": 320
    },
    {
        "Altitude(m)": 557835.4028757785,
        "Argument of Periapsis(deg)": 0.011503089823870818,
        "Eccentricity": 0.0,
        "Inclination(deg)": 53.0,
        "Latitude(deg)": -16.56128030948773,
        "Longitude(deg)": -133.48796807045423,
        "Mean Anomaly(deg)": 200.68542971737162,
        "RAAN(deg)": 134.98288058744342,
        "Satellite Name": "Starlink Shell 1 605",
        "Satellite Number": 605,
        "Semi-Major Axis(m)": 6931778.249405717,
        "Time(s)": 330
    },
    {
        "Altitude(m)": 557982.0592725478,
        "Argument of Periapsis(deg)": 0.011851668303382053,
        "Eccentricity": 0.0,
        "Inclination(deg)": 53.0,
        "Latitude(deg)": -17.05130960382055,
        "Longitude(deg)": -133.11883891953724,
        "Mean Anomaly(deg)": 201.31226092092828,
        "RAAN(deg)": 134.98236181736593,
        "Satellite Name": "Starlink Shell 1 605",
        "Satellite Number": 605,
        "Semi-Major Axis(m)": 6931778.249405717,
        "Time(s)": 340
    },
    {
        "Altitude(m)": 558130.4939929468,
        "Argument of Periapsis(deg)": 0.012200246782893292,
        "Eccentricity": 0.0,
        "Inclination(deg)": 53.0,
        "Latitude(deg)": -17.54046779223743,
        "Longitude(deg)": -132.74758014958832,
        "Mean Anomaly(deg)": 201.93909212448503,
        "RAAN(deg)": 134.98184304728846,
        "Satellite Name": "Starlink Shell 1 605",
        "Satellite Number": 605,
        "Semi-Major Axis(m)": 6931778.249405717,
        "Time(s)": 350
    },
    {
        "Altitude(m)": 558280.6573436809,
        "Argument of Periapsis(deg)": 0.012548825262404526,
        "Eccentricity": 0.0,
        "Inclination(deg)": 53.0,
        "Latitude(deg)": -18.0287244308497,
        "Longitude(deg)": -132.37411848252415,
        "Mean Anomaly(deg)": 202.5659233280418,
        "RAAN(deg)": 134.98132427721097,
        "Satellite Name": "Starlink Shell 1 605",
        "Satellite Number": 605,
        "Semi-Major Axis(m)": 6931778.249405717,
        "Time(s)": 360
    },
    {
        "Altitude(m)": 558432.4987119577,
        "Argument of Periapsis(deg)": 0.012897403741915765,
        "Eccentricity": 0.0,
        "Inclination(deg)": 53.0,
        "Latitude(deg)": -18.51604858711125,
        "Longitude(deg)": -131.99838023567938,
        "Mean Anomaly(deg)": 203.1927545315984,
        "RAAN(deg)": 134.9808055071335,
        "Satellite Name": "Starlink Shell 1 605",
        "Satellite Number": 605,
        "Semi-Major Axis(m)": 6931778.249405717,
        "Time(s)": 370
    }
]